start=new Date('2022-04-20T00:00:00.000Z').valueOf();
sats=[{"INCLINATION":"53.2177","GP_ID":"201628968","REV_AT_EPOCH":"369","NORAD_CAT_ID":"51115","TLE_LINE2":"2 51115  53.2177 188.3907 0002205  27.6705 243.6911 15.47954649  3690","ELEMENT_SET_NO":"999","ECCENTRICITY":"0.00022050","FILE":"3408368","SITE":"AFETR","EPHEMERIS_TYPE":"0","RCS_SIZE":"LARGE","MEAN_MOTION_DOT":"-0.00641405","PERIOD":"93.026","MEAN_ELEMENT_THEORY":"SGP4","LAUNCH_DATE":"2022-01-19","MEAN_MOTION_DDOT":"0.0000000000000","PERIAPSIS":"421.213","MEAN_MOTION":"15.47954649","MEAN_ANOMALY":"243.6911","DECAY_DATE":null,"SEMIMAJOR_AXIS":"6800.847","COUNTRY_CODE":"US","CLASSIFICATION_TYPE":"U","EPOCH":"2022-04-19T14:00:01.000224","BSTAR":"-0.01311000000000","CENTER_NAME":"EARTH","OBJECT_ID":"2022-005M","TIME_SYSTEM":"UTC","APOAPSIS":"424.212","TLE_LINE1":"1 51115U 22005M   22109.58334491 -.00641405  00000-0 -13110-1 0  9992","RA_OF_ASC_NODE":"188.3907","OBJECT_TYPE":"PAYLOAD","OBJECT_NAME":"STARLINK-3397","REF_FRAME":"TEME","ARG_OF_PERICENTER":"27.6705"},{"MEAN_MOTION_DDOT":"0.0000000000000","LAUNCH_DATE":"2022-01-19","MEAN_ELEMENT_THEORY":"SGP4","PERIOD":"93.081","MEAN_MOTION_DOT":"-0.00644702","RCS_SIZE":"LARGE","EPHEMERIS_TYPE":"0","FILE":"3408603","SITE":"AFETR","ECCENTRICITY":"0.00015710","NORAD_CAT_ID":"51116","TLE_LINE2":"2 51116  53.2175 186.7980 0001571  43.0618 252.8772 15.47043665 15598","ELEMENT_SET_NO":"999","REV_AT_EPOCH":"1559","INCLINATION":"53.2175","GP_ID":"201636123","ARG_OF_PERICENTER":"43.0618","REF_FRAME":"TEME","OBJECT_NAME":"STARLINK-3243","TLE_LINE1":"1 51116U 22005N   22109.91667824 -.00644702  00000-0 -13612-1 0  9999","OBJECT_TYPE":"PAYLOAD","RA_OF_ASC_NODE":"186.7980","APOAPSIS":"426.451","TIME_SYSTEM":"UTC","OBJECT_ID":"2022-005N","CENTER_NAME":"EARTH","BSTAR":"-0.01361200000000","EPOCH":"2022-04-19T22:00:00.999936","CLASSIFICATION_TYPE":"U","COUNTRY_CODE":"US","SEMIMAJOR_AXIS":"6803.517","DECAY_DATE":null,"MEAN_ANOMALY":"252.8772","MEAN_MOTION":"15.47043665","PERIAPSIS":"424.313"},{"MEAN_ELEMENT_THEORY":"SGP4","PERIOD":"92.998","MEAN_MOTION_DOT":"-0.00642614","MEAN_MOTION_DDOT":"0.0000000000000","LAUNCH_DATE":"2022-01-19","REV_AT_EPOCH":"369","INCLINATION":"53.2177","GP_ID":"201629970","RCS_SIZE":"LARGE","FILE":"3408368","EPHEMERIS_TYPE":"0","SITE":"AFETR","ECCENTRICITY":"0.00019460","ELEMENT_SET_NO":"999","TLE_LINE2":"2 51117  53.2177 188.3901 0001946  30.8546 273.1490 15.48412354  3699","NORAD_CAT_ID":"51117","TIME_SYSTEM":"UTC","APOAPSIS":"422.695","OBJECT_ID":"2022-005P","CENTER_NAME":"EARTH","BSTAR":"-0.01292800000000","EPOCH":"2022-04-19T14:00:01.000224","ARG_OF_PERICENTER":"30.8546","REF_FRAME":"TEME","OBJECT_NAME":"STARLINK-3391","RA_OF_ASC_NODE":"188.3901","TLE_LINE1":"1 51117U 22005P   22109.58334491 -.00642614  00000-0 -12928-1 0  9993","OBJECT_TYPE":"PAYLOAD","MEAN_ANOMALY":"273.1490","MEAN_MOTION":"15.48412354","PERIAPSIS":"420.049","CLASSIFICATION_TYPE":"U","COUNTRY_CODE":"US","SEMIMAJOR_AXIS":"6799.507","DECAY_DATE":null},{"TLE_LINE1":"1 51118U 22005Q   22109.58334491 -.00641075  00000-0 -13155-1 0  9997","OBJECT_TYPE":"PAYLOAD","RA_OF_ASC_NODE":"188.3907","OBJECT_NAME":"STARLINK-3394","REF_FRAME":"TEME","ARG_OF_PERICENTER":"25.4530","EPOCH":"2022-04-19T14:00:01.000224","BSTAR":"-0.01315500000000","CENTER_NAME":"EARTH","OBJECT_ID":"2022-005Q","APOAPSIS":"424.622","TIME_SYSTEM":"UTC","DECAY_DATE":null,"SEMIMAJOR_AXIS":"6801.182","COUNTRY_CODE":"US","CLASSIFICATION_TYPE":"U","PERIAPSIS":"421.473","MEAN_MOTION":"15.47840230","MEAN_ANOMALY":"237.6622","LAUNCH_DATE":"2022-01-19","MEAN_MOTION_DDOT":"0.0000000000000","MEAN_MOTION_DOT":"-0.00641075","PERIOD":"93.033","MEAN_ELEMENT_THEORY":"SGP4","TLE_LINE2":"2 51118  53.2177 188.3907 0002315  25.4530 237.6622 15.47840230  3699","NORAD_CAT_ID":"51118","ELEMENT_SET_NO":"999","ECCENTRICITY":"0.00023150","EPHEMERIS_TYPE":"0","FILE":"3408368","SITE":"AFETR","RCS_SIZE":"LARGE","GP_ID":"201629720","INCLINATION":"53.2177","REV_AT_EPOCH":"369"},{"MEAN_MOTION_DOT":"-0.00642826","PERIOD":"92.992","MEAN_ELEMENT_THEORY":"SGP4","LAUNCH_DATE":"2022-01-19","MEAN_MOTION_DDOT":"0.0000000000000","INCLINATION":"53.2176","GP_ID":"201628468","REV_AT_EPOCH":"369","TLE_LINE2":"2 51119  53.2176 188.3897 0001838  33.4143 278.6641 15.48526711  3697","ELEMENT_SET_NO":"999","NORAD_CAT_ID":"51119","ECCENTRICITY":"0.00018380","EPHEMERIS_TYPE":"0","FILE":"3408368","SITE":"AFETR","RCS_SIZE":"LARGE","EPOCH":"2022-04-19T14:00:01.000224","BSTAR":"-0.01288100000000","CENTER_NAME":"EARTH","OBJECT_ID":"2022-005R","APOAPSIS":"422.287","TIME_SYSTEM":"UTC","RA_OF_ASC_NODE":"188.3897","TLE_LINE1":"1 51119U 22005R   22109.58334491 -.00642826  00000-0 -12881-1 0  9998","OBJECT_TYPE":"PAYLOAD","OBJECT_NAME":"STARLINK-3390","REF_FRAME":"TEME","ARG_OF_PERICENTER":"33.4143","PERIAPSIS":"419.788","MEAN_MOTION":"15.48526711","MEAN_ANOMALY":"278.6641","DECAY_DATE":null,"SEMIMAJOR_AXIS":"6799.172","COUNTRY_CODE":"US","CLASSIFICATION_TYPE":"U"},{"CLASSIFICATION_TYPE":"U","DECAY_DATE":null,"SEMIMAJOR_AXIS":"6798.497","COUNTRY_CODE":"US","MEAN_MOTION":"15.48757575","MEAN_ANOMALY":"304.2986","PERIAPSIS":"418.922","ARG_OF_PERICENTER":"23.8249","TLE_LINE1":"1 51120U 22005S   22109.58334491 -.00646002  00000-0 -12844-1 0  9999","OBJECT_TYPE":"PAYLOAD","RA_OF_ASC_NODE":"188.3888","OBJECT_NAME":"STARLINK-3398","REF_FRAME":"TEME","CENTER_NAME":"EARTH","OBJECT_ID":"2022-005S","APOAPSIS":"421.801","TIME_SYSTEM":"UTC","EPOCH":"2022-04-19T14:00:01.000224","BSTAR":"-0.01284400000000","FILE":"3408368","SITE":"AFETR","EPHEMERIS_TYPE":"0","RCS_SIZE":"LARGE","ELEMENT_SET_NO":"999","TLE_LINE2":"2 51120  53.2176 188.3888 0002117  23.8249 304.2986 15.48757575  3692","NORAD_CAT_ID":"51120","ECCENTRICITY":"0.00021170","REV_AT_EPOCH":"369","GP_ID":"201628718","INCLINATION":"53.2176","LAUNCH_DATE":"2022-01-19","MEAN_MOTION_DDOT":"0.0000000000000","PERIOD":"92.978","MEAN_ELEMENT_THEORY":"SGP4","MEAN_MOTION_DOT":"-0.00646002"},{"OBJECT_NAME":"STARLINK-3399","RA_OF_ASC_NODE":"188.3904","TLE_LINE1":"1 51121U 22005T   22109.58334491 -.00642362  00000-0 -12974-1 0  9999","OBJECT_TYPE":"PAYLOAD","REF_FRAME":"TEME","ARG_OF_PERICENTER":"27.3238","BSTAR":"-0.01297400000000","EPOCH":"2022-04-19T14:00:01.000224","OBJECT_ID":"2022-005T","CENTER_NAME":"EARTH","APOAPSIS":"423.156","TIME_SYSTEM":"UTC","DECAY_DATE":null,"COUNTRY_CODE":"US","SEMIMAJOR_AXIS":"6799.842","CLASSIFICATION_TYPE":"U","PERIAPSIS":"420.258","MEAN_MOTION":"15.48297956","MEAN_ANOMALY":"268.5709","MEAN_MOTION_DDOT":"0.0000000000000","LAUNCH_DATE":"2022-01-19","MEAN_MOTION_DOT":"-0.00642362","PERIOD":"93.005","MEAN_ELEMENT_THEORY":"SGP4","ELEMENT_SET_NO":"999","TLE_LINE2":"2 51121  53.2177 188.3904 0002131  27.3238 268.5709 15.48297956  3693","NORAD_CAT_ID":"51121","ECCENTRICITY":"0.00021310","FILE":"3408368","EPHEMERIS_TYPE":"0","SITE":"AFETR","RCS_SIZE":"LARGE","INCLINATION":"53.2177","GP_ID":"201629470","REV_AT_EPOCH":"369"},{"SITE":"AFETR","FILE":"3408368","EPHEMERIS_TYPE":"0","RCS_SIZE":"LARGE","NORAD_CAT_ID":"51122","TLE_LINE2":"2 51122  53.2176 188.3894 0001969  29.6257 290.4930 15.48641192  3690","ELEMENT_SET_NO":"999","ECCENTRICITY":"0.00019690","REV_AT_EPOCH":"369","GP_ID":"201630221","INCLINATION":"53.2176","LAUNCH_DATE":"2022-01-19","MEAN_MOTION_DDOT":"0.0000000000000","PERIOD":"92.985","MEAN_ELEMENT_THEORY":"SGP4","MEAN_MOTION_DOT":"-0.00643211","CLASSIFICATION_TYPE":"U","DECAY_DATE":null,"SEMIMAJOR_AXIS":"6798.837","COUNTRY_CODE":"US","MEAN_MOTION":"15.48641192","MEAN_ANOMALY":"290.4930","PERIAPSIS":"419.363","ARG_OF_PERICENTER":"29.6257","TLE_LINE1":"1 51122U 22005U   22109.58334491 -.00643211  00000-0 -12837-1 0  9992","RA_OF_ASC_NODE":"188.3894","OBJECT_TYPE":"PAYLOAD","OBJECT_NAME":"STARLINK-3373","REF_FRAME":"TEME","CENTER_NAME":"EARTH","OBJECT_ID":"2022-005U","APOAPSIS":"422.041","TIME_SYSTEM":"UTC","EPOCH":"2022-04-19T14:00:01.000224","BSTAR":"-0.01283700000000"},{"REV_AT_EPOCH":"370","INCLINATION":"53.2177","GP_ID":"201628969","EPHEMERIS_TYPE":"0","FILE":"3408368","SITE":"AFETR","RCS_SIZE":"LARGE","TLE_LINE2":"2 51123  53.2177 188.3875 0001999  23.6793 312.4342 15.48828919  3701","ELEMENT_SET_NO":"999","NORAD_CAT_ID":"51123","ECCENTRICITY":"0.00019990","PERIOD":"92.973","MEAN_ELEMENT_THEORY":"SGP4","MEAN_MOTION_DOT":"-0.00581659","MEAN_MOTION_DDOT":"0.0000000000000","LAUNCH_DATE":"2022-01-19","MEAN_MOTION":"15.48828919","MEAN_ANOMALY":"312.4342","PERIAPSIS":"418.794","CLASSIFICATION_TYPE":"U","DECAY_DATE":null,"COUNTRY_CODE":"US","SEMIMAJOR_AXIS":"6798.288","OBJECT_ID":"2022-005V","CENTER_NAME":"EARTH","TIME_SYSTEM":"UTC","APOAPSIS":"421.512","BSTAR":"-0.01144100000000","EPOCH":"2022-04-19T14:00:01.000224","ARG_OF_PERICENTER":"23.6793","OBJECT_NAME":"STARLINK-3392","TLE_LINE1":"1 51123U 22005V   22109.58334491 -.00581659  00000-0 -11441-1 0  9990","RA_OF_ASC_NODE":"188.3875","OBJECT_TYPE":"PAYLOAD","REF_FRAME":"TEME"},{"PERIAPSIS":"505.382","MEAN_ANOMALY":"232.4623","MEAN_MOTION":"15.19729221","COUNTRY_CODE":"US","SEMIMAJOR_AXIS":"6884.795","DECAY_DATE":null,"CLASSIFICATION_TYPE":"U","BSTAR":"-0.03584300000000","EPOCH":"2022-04-19T14:00:01.000224","TIME_SYSTEM":"UTC","APOAPSIS":"507.939","OBJECT_ID":"2022-005W","CENTER_NAME":"EARTH","REF_FRAME":"TEME","OBJECT_NAME":"STARLINK-3389","TLE_LINE1":"1 51124U 22005W   22109.58334491 -.00722820  00000-0 -35843-1 0  9990","RA_OF_ASC_NODE":"194.4460","OBJECT_TYPE":"PAYLOAD","ARG_OF_PERICENTER":"41.1557","GP_ID":"201629219","INCLINATION":"53.2177","REV_AT_EPOCH":"365","ECCENTRICITY":"0.00018570","TLE_LINE2":"2 51124  53.2177 194.4460 0001857  41.1557 232.4623 15.19729221  3657","NORAD_CAT_ID":"51124","ELEMENT_SET_NO":"999","RCS_SIZE":"LARGE","SITE":"AFETR","FILE":"3408368","EPHEMERIS_TYPE":"0","MEAN_MOTION_DOT":"-0.00722820","MEAN_ELEMENT_THEORY":"SGP4","PERIOD":"94.754","MEAN_MOTION_DDOT":"0.0000000000000","LAUNCH_DATE":"2022-01-19"}];
